{
"type": "FeatureCollection",
"name": "MBTA_Commuter_Rail_Stations",
"crs": { "type": "name", "properties": { "name": "urn:ogc:def:crs:OGC:1.3:CRS84" } },
"features": [
{ "type": "Feature", "properties": { "OBJECTID": 1, "STATION": "GREENBUSH", "C_RAILSTAT": "Y", "AMTRAK": null, "MAP_STA": "Y", "LINE_BRNCH": "GREENBUSH LINE", "STATE": "MA" }, "geometry": { "type": "Point", "coordinates": [ -70.746567307549924, 42.177807447180101 ] } },
{ "type": "Feature", "properties": { "OBJECTID": 5, "STATION": "BUZZARDS BAY (S)", "C_RAILSTAT": "S", "AMTRAK": null, "MAP_STA": "Y", "LINE_BRNCH": "CAPE COD MAIN LINE", "STATE": "MA" }, "geometry": { "type": "Point", "coordinates": [ -70.616232928020821, 41.744834538147707 ] } },
{ "type": "Feature", "properties": { "OBJECTID": 22, "STATION": "WACHUSETT", "C_RAILSTAT": "Y", "AMTRAK": null, "MAP_STA": "Y", "LINE_BRNCH": "FITCHBURG LINE", "STATE": "MA" }, "geometry": { "type": "Point", "coordinates": [ -71.848764402003724, 42.553572322269027 ] } },
{ "type": "Feature", "properties": { "OBJECTID": 23, "STATION": "BRADFORD", "C_RAILSTAT": "Y", "AMTRAK": null, "MAP_STA": "Y", "LINE_BRNCH": "HAVERHILL LINE", "STATE": "MA" }, "geometry": { "type": "Point", "coordinates": [ -71.08655139418606, 42.768735207660399 ] } },
{ "type": "Feature", "properties": { "OBJECTID": 28, "STATION": "LAWRENCE", "C_RAILSTAT": "Y", "AMTRAK": null, "MAP_STA": "Y", "LINE_BRNCH": "HAVERHILL LINE", "STATE": "MA" }, "geometry": { "type": "Point", "coordinates": [ -71.151692261070849, 42.701782311154183 ] } },
{ "type": "Feature", "properties": { "OBJECTID": 55, "STATION": "SOUTH STATION", "C_RAILSTAT": "Y", "AMTRAK": "Y", "MAP_STA": "Y", "LINE_BRNCH": "MULTIPLE", "STATE": "MA" }, "geometry": { "type": "Point", "coordinates": [ -71.054960849662663, 42.351471232375395 ] } },
{ "type": "Feature", "properties": { "OBJECTID": 57, "STATION": "BOSTON LANDING", "C_RAILSTAT": "Y", "AMTRAK": null, "MAP_STA": "Y", "LINE_BRNCH": "FRAMINGHAM/WORCESTER LINE", "STATE": "MA" }, "geometry": { "type": "Point", "coordinates": [ -71.139129003222152, 42.357156793138955 ] } },
{ "type": "Feature", "properties": { "OBJECTID": 74, "STATION": "NORTH STATION", "C_RAILSTAT": "Y", "AMTRAK": "Y", "MAP_STA": "Y", "LINE_BRNCH": "MULTIPLE (WESTERN ROUTE)", "STATE": "MA" }, "geometry": { "type": "Point", "coordinates": [ -71.062271190322079, 42.366295154905764 ] } },
{ "type": "Feature", "properties": { "OBJECTID": 78, "STATION": "EAST WEYMOUTH", "C_RAILSTAT": "Y", "AMTRAK": null, "MAP_STA": "Y", "LINE_BRNCH": "GREENBUSH LINE", "STATE": "MA" }, "geometry": { "type": "Point", "coordinates": [ -70.92171938839617, 42.219408036182557 ] } },
{ "type": "Feature", "properties": { "OBJECTID": 93, "STATION": "CHELSEA", "C_RAILSTAT": "Y", "AMTRAK": null, "MAP_STA": "Y", "LINE_BRNCH": "NEWBURYPORT/ROCKPORT LINE", "STATE": "MA" }, "geometry": { "type": "Point", "coordinates": [ -71.033442196319854, 42.395472124093523 ] } },
{ "type": "Feature", "properties": { "OBJECTID": 96, "STATION": "WALPOLE", "C_RAILSTAT": "Y", "AMTRAK": null, "MAP_STA": "Y", "LINE_BRNCH": "FRANKLIN LINE", "STATE": "MA" }, "geometry": { "type": "Point", "coordinates": [ -71.258131717826984, 42.145327158349467 ] } },
{ "type": "Feature", "properties": { "OBJECTID": 100, "STATION": "ROWLEY", "C_RAILSTAT": "Y", "AMTRAK": null, "MAP_STA": "Y", "LINE_BRNCH": "NEWBURYPORT LINE", "STATE": "MA" }, "geometry": { "type": "Point", "coordinates": [ -70.858550295978731, 42.725027802257586 ] } },
{ "type": "Feature", "properties": { "OBJECTID": 101, "STATION": "SALEM", "C_RAILSTAT": "Y", "AMTRAK": null, "MAP_STA": "Y", "LINE_BRNCH": "NEWBURYPORT/ROCKPORT LINE", "STATE": "MA" }, "geometry": { "type": "Point", "coordinates": [ -70.895982446319394, 42.523970473168255 ] } },
{ "type": "Feature", "properties": { "OBJECTID": 102, "STATION": "SWAMPSCOTT", "C_RAILSTAT": "Y", "AMTRAK": null, "MAP_STA": "Y", "LINE_BRNCH": "NEWBURYPORT/ROCKPORT LINE", "STATE": "MA" }, "geometry": { "type": "Point", "coordinates": [ -70.921684180892299, 42.474250999021912 ] } },
{ "type": "Feature", "properties": { "OBJECTID": 103, "STATION": "RIVER WORKS", "C_RAILSTAT": "Y", "AMTRAK": null, "MAP_STA": "Y", "LINE_BRNCH": "NEWBURYPORT/ROCKPORT LINE", "STATE": "MA" }, "geometry": { "type": "Point", "coordinates": [ -70.969767743185415, 42.449806928682996 ] } },
{ "type": "Feature", "properties": { "OBJECTID": 104, "STATION": "ASHLAND", "C_RAILSTAT": "Y", "AMTRAK": null, "MAP_STA": "Y", "LINE_BRNCH": "FRAMINGHAM/WORCESTER LINE", "STATE": "MA" }, "geometry": { "type": "Point", "coordinates": [ -71.476118126567897, 42.261023351453701 ] } },
{ "type": "Feature", "properties": { "OBJECTID": 105, "STATION": "SOUTHBOROUGH", "C_RAILSTAT": "Y", "AMTRAK": null, "MAP_STA": "Y", "LINE_BRNCH": "FRAMINGHAM/WORCESTER LINE", "STATE": "MA" }, "geometry": { "type": "Point", "coordinates": [ -71.523845491473708, 42.267150438098383 ] } },
{ "type": "Feature", "properties": { "OBJECTID": 106, "STATION": "WESTBOROUGH", "C_RAILSTAT": "Y", "AMTRAK": null, "MAP_STA": "Y", "LINE_BRNCH": "FRAMINGHAM/WORCESTER LINE", "STATE": "MA" }, "geometry": { "type": "Point", "coordinates": [ -71.648601604366036, 42.269276559796701 ] } },
{ "type": "Feature", "properties": { "OBJECTID": 107, "STATION": "GRAFTON", "C_RAILSTAT": "Y", "AMTRAK": null, "MAP_STA": "Y", "LINE_BRNCH": "FRAMINGHAM/WORCESTER LINE", "STATE": "MA" }, "geometry": { "type": "Point", "coordinates": [ -71.684615066410331, 42.247135461499873 ] } },
{ "type": "Feature", "properties": { "OBJECTID": 108, "STATION": "IPSWICH", "C_RAILSTAT": "Y", "AMTRAK": null, "MAP_STA": "Y", "LINE_BRNCH": "NEWBURYPORT LINE", "STATE": "MA" }, "geometry": { "type": "Point", "coordinates": [ -70.840602210496058, 42.676879299061902 ] } },
{ "type": "Feature", "properties": { "OBJECTID": 109, "STATION": "ROCKPORT", "C_RAILSTAT": "Y", "AMTRAK": null, "MAP_STA": "Y", "LINE_BRNCH": "ROCKPORT LINE", "STATE": "MA" }, "geometry": { "type": "Point", "coordinates": [ -70.626260496553073, 42.656211071649025 ] } },
{ "type": "Feature", "properties": { "OBJECTID": 110, "STATION": "WEST GLOUCESTER", "C_RAILSTAT": "Y", "AMTRAK": null, "MAP_STA": "Y", "LINE_BRNCH": "ROCKPORT LINE", "STATE": "MA" }, "geometry": { "type": "Point", "coordinates": [ -70.706121573397809, 42.611370730937082 ] } },
{ "type": "Feature", "properties": { "OBJECTID": 111, "STATION": "MONTSERRAT", "C_RAILSTAT": "Y", "AMTRAK": null, "MAP_STA": "Y", "LINE_BRNCH": "ROCKPORT LINE", "STATE": "MA" }, "geometry": { "type": "Point", "coordinates": [ -70.868526539179484, 42.562374190269921 ] } },
{ "type": "Feature", "properties": { "OBJECTID": 112, "STATION": "BEVERLY FARMS", "C_RAILSTAT": "Y", "AMTRAK": null, "MAP_STA": "Y", "LINE_BRNCH": "ROCKPORT LINE", "STATE": "MA" }, "geometry": { "type": "Point", "coordinates": [ -70.812263950395177, 42.561483001162422 ] } },
{ "type": "Feature", "properties": { "OBJECTID": 113, "STATION": "MANCHESTER", "C_RAILSTAT": "Y", "AMTRAK": null, "MAP_STA": "Y", "LINE_BRNCH": "ROCKPORT LINE", "STATE": "MA" }, "geometry": { "type": "Point", "coordinates": [ -70.769079310566383, 42.574005972464796 ] } },
{ "type": "Feature", "properties": { "OBJECTID": 114, "STATION": "FOXBORO (SPECIAL EVENT)", "C_RAILSTAT": "S", "AMTRAK": null, "MAP_STA": "Y", "LINE_BRNCH": "FOXBORO (SPECIAL EVENTS ONLY)", "STATE": "MA" }, "geometry": { "type": "Point", "coordinates": [ -71.260465379699326, 42.092806684015777 ] } },
{ "type": "Feature", "properties": { "OBJECTID": 115, "STATION": "HYDE PARK", "C_RAILSTAT": "Y", "AMTRAK": null, "MAP_STA": "Y", "LINE_BRNCH": "PROVIDENCE/STOUGHTON LINE", "STATE": "MA" }, "geometry": { "type": "Point", "coordinates": [ -71.12546891265265, 42.255201425219937 ] } },
{ "type": "Feature", "properties": { "OBJECTID": 116, "STATION": "FOREST HILLS", "C_RAILSTAT": "Y", "AMTRAK": null, "MAP_STA": "Y", "LINE_BRNCH": "NEEDHAM LINE", "STATE": "MA" }, "geometry": { "type": "Point", "coordinates": [ -71.114623273886991, 42.299490554345759 ] } },
{ "type": "Feature", "properties": { "OBJECTID": 117, "STATION": "BACK BAY", "C_RAILSTAT": "Y", "AMTRAK": "Y", "MAP_STA": "Y", "LINE_BRNCH": "PROVIDENCE/STOUGHTON LINE", "STATE": "MA" }, "geometry": { "type": "Point", "coordinates": [ -71.075118032244461, 42.347467574316511 ] } },
{ "type": "Feature", "properties": { "OBJECTID": 118, "STATION": "HALIFAX", "C_RAILSTAT": "Y", "AMTRAK": null, "MAP_STA": "Y", "LINE_BRNCH": "KINGSTON LINE", "STATE": "MA" }, "geometry": { "type": "Point", "coordinates": [ -70.820811868616758, 42.01297832237821 ] } },
{ "type": "Feature", "properties": { "OBJECTID": 119, "STATION": "SOUTH WEYMOUTH", "C_RAILSTAT": "Y", "AMTRAK": null, "MAP_STA": "Y", "LINE_BRNCH": "KINGSTON LINE", "STATE": "MA" }, "geometry": { "type": "Point", "coordinates": [ -70.952721915934546, 42.154159722795193 ] } },
{ "type": "Feature", "properties": { "OBJECTID": 120, "STATION": "WHITMAN", "C_RAILSTAT": "Y", "AMTRAK": null, "MAP_STA": "Y", "LINE_BRNCH": "KINGSTON LINE", "STATE": "MA" }, "geometry": { "type": "Point", "coordinates": [ -70.923625762417998, 42.082984830656535 ] } },
{ "type": "Feature", "properties": { "OBJECTID": 121, "STATION": "KINGSTON", "C_RAILSTAT": "Y", "AMTRAK": null, "MAP_STA": "Y", "LINE_BRNCH": "KINGSTON LINE", "STATE": "MA" }, "geometry": { "type": "Point", "coordinates": [ -70.723837327711436, 41.976370041845009 ] } },
{ "type": "Feature", "properties": { "OBJECTID": 122, "STATION": "STOUGHTON", "C_RAILSTAT": "Y", "AMTRAK": null, "MAP_STA": "Y", "LINE_BRNCH": "PROVIDENCE/STOUGHTON LINE", "STATE": "MA" }, "geometry": { "type": "Point", "coordinates": [ -71.103372398691917, 42.123783999780414 ] } },
{ "type": "Feature", "properties": { "OBJECTID": 123, "STATION": "FRAMINGHAM", "C_RAILSTAT": "Y", "AMTRAK": "Y", "MAP_STA": "Y", "LINE_BRNCH": "FRAMINGHAM/WORCESTER LINE", "STATE": "MA" }, "geometry": { "type": "Point", "coordinates": [ -71.419915118544537, 42.276208090733995 ] } },
{ "type": "Feature", "properties": { "OBJECTID": 124, "STATION": "WELLESLEY FARMS", "C_RAILSTAT": "Y", "AMTRAK": null, "MAP_STA": "Y", "LINE_BRNCH": "FRAMINGHAM/WORCESTER LINE", "STATE": "MA" }, "geometry": { "type": "Point", "coordinates": [ -71.272542568007566, 42.322181514350028 ] } },
{ "type": "Feature", "properties": { "OBJECTID": 125, "STATION": "AUBURNDALE", "C_RAILSTAT": "Y", "AMTRAK": null, "MAP_STA": "Y", "LINE_BRNCH": "FRAMINGHAM/WORCESTER LINE", "STATE": "MA" }, "geometry": { "type": "Point", "coordinates": [ -71.250290720968025, 42.34589955018216 ] } },
{ "type": "Feature", "properties": { "OBJECTID": 126, "STATION": "NEWTONVILLE", "C_RAILSTAT": "Y", "AMTRAK": null, "MAP_STA": "Y", "LINE_BRNCH": "FRAMINGHAM/WORCESTER LINE", "STATE": "MA" }, "geometry": { "type": "Point", "coordinates": [ -71.206468843609173, 42.351518822786907 ] } },
{ "type": "Feature", "properties": { "OBJECTID": 127, "STATION": "WEST NEWTON", "C_RAILSTAT": "Y", "AMTRAK": null, "MAP_STA": "Y", "LINE_BRNCH": "FRAMINGHAM/WORCESTER LINE", "STATE": "MA" }, "geometry": { "type": "Point", "coordinates": [ -71.231335897895889, 42.347825635862556 ] } },
{ "type": "Feature", "properties": { "OBJECTID": 128, "STATION": "WELLESLEY HILLS", "C_RAILSTAT": "Y", "AMTRAK": null, "MAP_STA": "Y", "LINE_BRNCH": "FRAMINGHAM/WORCESTER LINE", "STATE": "MA" }, "geometry": { "type": "Point", "coordinates": [ -71.276864661659801, 42.310990391380123 ] } },
{ "type": "Feature", "properties": { "OBJECTID": 129, "STATION": "LANSDOWNE", "C_RAILSTAT": "Y", "AMTRAK": null, "MAP_STA": "Y", "LINE_BRNCH": "FRAMINGHAM/WORCESTER LINE", "STATE": "MA" }, "geometry": { "type": "Point", "coordinates": [ -71.100479551934868, 42.347655331607683 ] } },
{ "type": "Feature", "properties": { "OBJECTID": 130, "STATION": "WEST NATICK", "C_RAILSTAT": "Y", "AMTRAK": null, "MAP_STA": "Y", "LINE_BRNCH": "FRAMINGHAM/WORCESTER LINE", "STATE": "MA" }, "geometry": { "type": "Point", "coordinates": [ -71.391454428555278, 42.283214089703996 ] } },
{ "type": "Feature", "properties": { "OBJECTID": 131, "STATION": "WELLESLEY SQUARE", "C_RAILSTAT": "Y", "AMTRAK": null, "MAP_STA": "Y", "LINE_BRNCH": "FRAMINGHAM/WORCESTER LINE", "STATE": "MA" }, "geometry": { "type": "Point", "coordinates": [ -71.294947927286799, 42.297193909317727 ] } },
{ "type": "Feature", "properties": { "OBJECTID": 132, "STATION": "MELROSE HIGHLANDS", "C_RAILSTAT": "Y", "AMTRAK": null, "MAP_STA": "Y", "LINE_BRNCH": "HAVERHILL LINE", "STATE": "MA" }, "geometry": { "type": "Point", "coordinates": [ -71.0684969894414, 42.46880180176116 ] } },
{ "type": "Feature", "properties": { "OBJECTID": 133, "STATION": "MELROSE/CEDAR PARK", "C_RAILSTAT": "Y", "AMTRAK": null, "MAP_STA": "Y", "LINE_BRNCH": "HAVERHILL LINE", "STATE": "MA" }, "geometry": { "type": "Point", "coordinates": [ -71.069902511543944, 42.459164067502172 ] } },
{ "type": "Feature", "properties": { "OBJECTID": 134, "STATION": "WAKEFIELD", "C_RAILSTAT": "Y", "AMTRAK": null, "MAP_STA": "Y", "LINE_BRNCH": "HAVERHILL LINE", "STATE": "MA" }, "geometry": { "type": "Point", "coordinates": [ -71.075769508807113, 42.502390019113683 ] } },
{ "type": "Feature", "properties": { "OBJECTID": 135, "STATION": "READING", "C_RAILSTAT": "Y", "AMTRAK": null, "MAP_STA": "Y", "LINE_BRNCH": "HAVERHILL LINE", "STATE": "MA" }, "geometry": { "type": "Point", "coordinates": [ -71.110671429799822, 42.523261782571126 ] } },
{ "type": "Feature", "properties": { "OBJECTID": 137, "STATION": "NORTH SCITUATE", "C_RAILSTAT": "Y", "AMTRAK": null, "MAP_STA": "Y", "LINE_BRNCH": "GREENBUSH LINE", "STATE": "MA" }, "geometry": { "type": "Point", "coordinates": [ -70.785453309692073, 42.218779219670751 ] } },
{ "type": "Feature", "properties": { "OBJECTID": 138, "STATION": "NANTASKET JUNCTION", "C_RAILSTAT": "Y", "AMTRAK": null, "MAP_STA": "Y", "LINE_BRNCH": "GREENBUSH LINE", "STATE": "MA" }, "geometry": { "type": "Point", "coordinates": [ -70.867937974710742, 42.244952137620814 ] } },
{ "type": "Feature", "properties": { "OBJECTID": 156, "STATION": "WINCHESTER CENTER", "C_RAILSTAT": "Y", "AMTRAK": null, "MAP_STA": "Y", "LINE_BRNCH": "LOWELL LINE", "STATE": "MA" }, "geometry": { "type": "Point", "coordinates": [ -71.137312466309552, 42.452256361198749 ] } },
{ "type": "Feature", "properties": { "OBJECTID": 157, "STATION": "WEST MEDFORD", "C_RAILSTAT": "Y", "AMTRAK": null, "MAP_STA": "Y", "LINE_BRNCH": "LOWELL LINE", "STATE": "MA" }, "geometry": { "type": "Point", "coordinates": [ -71.133354709819827, 42.421816378565936 ] } },
{ "type": "Feature", "properties": { "OBJECTID": 158, "STATION": "NORTH BILLERICA", "C_RAILSTAT": "Y", "AMTRAK": null, "MAP_STA": "Y", "LINE_BRNCH": "LOWELL LINE", "STATE": "MA" }, "geometry": { "type": "Point", "coordinates": [ -71.2811502318783, 42.593655743644852 ] } },
{ "type": "Feature", "properties": { "OBJECTID": 159, "STATION": "WILMINGTON", "C_RAILSTAT": "Y", "AMTRAK": null, "MAP_STA": "Y", "LINE_BRNCH": "LOWELL LINE", "STATE": "MA" }, "geometry": { "type": "Point", "coordinates": [ -71.175598961804255, 42.548106371685641 ] } },
{ "type": "Feature", "properties": { "OBJECTID": 163, "STATION": "FRANKLIN/DEAN COLLEGE", "C_RAILSTAT": "Y", "AMTRAK": null, "MAP_STA": "Y", "LINE_BRNCH": "FRANKLIN LINE", "STATE": "MA" }, "geometry": { "type": "Point", "coordinates": [ -71.396943552783497, 42.08267454183332 ] } },
{ "type": "Feature", "properties": { "OBJECTID": 164, "STATION": "NORFOLK", "C_RAILSTAT": "Y", "AMTRAK": null, "MAP_STA": "Y", "LINE_BRNCH": "FRANKLIN LINE", "STATE": "MA" }, "geometry": { "type": "Point", "coordinates": [ -71.325382291182891, 42.120547084636179 ] } },
{ "type": "Feature", "properties": { "OBJECTID": 165, "STATION": "WINDSOR GARDENS", "C_RAILSTAT": "Y", "AMTRAK": null, "MAP_STA": "Y", "LINE_BRNCH": "FRANKLIN LINE", "STATE": "MA" }, "geometry": { "type": "Point", "coordinates": [ -71.220692896267735, 42.171068793812353 ] } },
{ "type": "Feature", "properties": { "OBJECTID": 167, "STATION": "MORTON STREET", "C_RAILSTAT": "Y", "AMTRAK": null, "MAP_STA": "Y", "LINE_BRNCH": "FAIRMOUNT LINE", "STATE": "MA" }, "geometry": { "type": "Point", "coordinates": [ -71.086296344819942, 42.280057838144458 ] } },
{ "type": "Feature", "properties": { "OBJECTID": 168, "STATION": "FAIRMOUNT", "C_RAILSTAT": "Y", "AMTRAK": null, "MAP_STA": "Y", "LINE_BRNCH": "FAIRMOUNT LINE", "STATE": "MA" }, "geometry": { "type": "Point", "coordinates": [ -71.1188040365695, 42.254256951743251 ] } },
{ "type": "Feature", "properties": { "OBJECTID": 169, "STATION": "NEWMARKET ", "C_RAILSTAT": "Y", "AMTRAK": null, "MAP_STA": "Y", "LINE_BRNCH": "FAIRMOUNT LINE", "STATE": "MA" }, "geometry": { "type": "Point", "coordinates": [ -71.065642745892504, 42.32750846259637 ] } },
{ "type": "Feature", "properties": { "OBJECTID": 170, "STATION": "FOUR CORNERS/GENEVA AVE", "C_RAILSTAT": "Y", "AMTRAK": null, "MAP_STA": "Y", "LINE_BRNCH": "FAIRMOUNT LINE", "STATE": "MA" }, "geometry": { "type": "Point", "coordinates": [ -71.07719658428455, 42.304794769007955 ] } },
{ "type": "Feature", "properties": { "OBJECTID": 171, "STATION": "ENDICOTT", "C_RAILSTAT": "Y", "AMTRAK": null, "MAP_STA": "Y", "LINE_BRNCH": "FRANKLIN LINE", "STATE": "MA" }, "geometry": { "type": "Point", "coordinates": [ -71.16029710870815, 42.232668430409312 ] } },
{ "type": "Feature", "properties": { "OBJECTID": 172, "STATION": "PROVIDENCE", "C_RAILSTAT": "Y", "AMTRAK": "Y", "MAP_STA": "Y", "LINE_BRNCH": "PROVIDENCE/STOUGHTON LINE", "STATE": "RI" }, "geometry": { "type": "Point", "coordinates": [ -71.413284893240842, 41.829243369960572 ] } },
{ "type": "Feature", "properties": { "OBJECTID": 184, "STATION": "NEWBURYPORT", "C_RAILSTAT": "Y", "AMTRAK": null, "MAP_STA": "Y", "LINE_BRNCH": "NEWBURYPORT LINE", "STATE": "MA" }, "geometry": { "type": "Point", "coordinates": [ -70.878783561980015, 42.799591732511097 ] } },
{ "type": "Feature", "properties": { "OBJECTID": 193, "STATION": "HAMILTON/WENHAM", "C_RAILSTAT": "Y", "AMTRAK": null, "MAP_STA": "Y", "LINE_BRNCH": "NEWBURYPORT LINE", "STATE": "MA" }, "geometry": { "type": "Point", "coordinates": [ -70.874095688911623, 42.611098016905238 ] } },
{ "type": "Feature", "properties": { "OBJECTID": 201, "STATION": "NEEDHAM HEIGHTS", "C_RAILSTAT": "Y", "AMTRAK": null, "MAP_STA": "Y", "LINE_BRNCH": "NEEDHAM LINE", "STATE": "MA" }, "geometry": { "type": "Point", "coordinates": [ -71.236056261226835, 42.29319287749825 ] } },
{ "type": "Feature", "properties": { "OBJECTID": 209, "STATION": "BRIDGEWATER", "C_RAILSTAT": "Y", "AMTRAK": null, "MAP_STA": "Y", "LINE_BRNCH": "MIDDLEBOROUGH/LAKEVILLE LINE", "STATE": "MA" }, "geometry": { "type": "Point", "coordinates": [ -70.964577941214714, 41.984094823530398 ] } },
{ "type": "Feature", "properties": { "OBJECTID": 218, "STATION": "SHIRLEY", "C_RAILSTAT": "Y", "AMTRAK": null, "MAP_STA": "Y", "LINE_BRNCH": "FITCHBURG LINE", "STATE": "MA" }, "geometry": { "type": "Point", "coordinates": [ -71.648301724676585, 42.545130656536017 ] } },
{ "type": "Feature", "properties": { "OBJECTID": 221, "STATION": "ISLINGTON", "C_RAILSTAT": "Y", "AMTRAK": null, "MAP_STA": "Y", "LINE_BRNCH": "FRANKLIN LINE", "STATE": "MA" }, "geometry": { "type": "Point", "coordinates": [ -71.187610447705723, 42.216704198755238 ] } },
{ "type": "Feature", "properties": { "OBJECTID": 222, "STATION": "GREENWOOD", "C_RAILSTAT": "Y", "AMTRAK": null, "MAP_STA": "Y", "LINE_BRNCH": "HAVERHILL LINE", "STATE": "MA" }, "geometry": { "type": "Point", "coordinates": [ -71.06734108967305, 42.482963696727033 ] } },
{ "type": "Feature", "properties": { "OBJECTID": 224, "STATION": "HANSON", "C_RAILSTAT": "Y", "AMTRAK": null, "MAP_STA": "Y", "LINE_BRNCH": "KINGSTON LINE", "STATE": "MA" }, "geometry": { "type": "Point", "coordinates": [ -70.88242046128849, 42.043955361260494 ] } },
{ "type": "Feature", "properties": { "OBJECTID": 225, "STATION": "ABINGTON", "C_RAILSTAT": "Y", "AMTRAK": null, "MAP_STA": "Y", "LINE_BRNCH": "KINGSTON LINE", "STATE": "MA" }, "geometry": { "type": "Point", "coordinates": [ -70.934225512889867, 42.106729632237709 ] } },
{ "type": "Feature", "properties": { "OBJECTID": 227, "STATION": "SHARON", "C_RAILSTAT": "Y", "AMTRAK": null, "MAP_STA": "Y", "LINE_BRNCH": "PROVIDENCE/STOUGHTON LINE", "STATE": "MA" }, "geometry": { "type": "Point", "coordinates": [ -71.184284834234148, 42.124813177844146 ] } },
{ "type": "Feature", "properties": { "OBJECTID": 229, "STATION": "NORWOOD CENTRAL", "C_RAILSTAT": "Y", "AMTRAK": null, "MAP_STA": "Y", "LINE_BRNCH": "FRANKLIN LINE", "STATE": "MA" }, "geometry": { "type": "Point", "coordinates": [ -71.199704160240486, 42.188791356451524 ] } },
{ "type": "Feature", "properties": { "OBJECTID": 236, "STATION": "BEVERLY", "C_RAILSTAT": "Y", "AMTRAK": null, "MAP_STA": "Y", "LINE_BRNCH": "NEWBURYPORT/ROCKPORT LINE", "STATE": "MA" }, "geometry": { "type": "Point", "coordinates": [ -70.885305275539196, 42.547916650752029 ] } },
{ "type": "Feature", "properties": { "OBJECTID": 237, "STATION": "BRAINTREE", "C_RAILSTAT": "Y", "AMTRAK": null, "MAP_STA": "Y", "LINE_BRNCH": "MIDDLEBOROUGH MAIN", "STATE": "MA" }, "geometry": { "type": "Point", "coordinates": [ -71.001366503004022, 42.208303253400977 ] } },
{ "type": "Feature", "properties": { "OBJECTID": 238, "STATION": "ATTLEBORO", "C_RAILSTAT": "Y", "AMTRAK": null, "MAP_STA": "Y", "LINE_BRNCH": "PROVIDENCE/STOUGHTON LINE", "STATE": "MA" }, "geometry": { "type": "Point", "coordinates": [ -71.284340474164154, 41.941740308420599 ] } },
{ "type": "Feature", "properties": { "OBJECTID": 240, "STATION": "COHASSET", "C_RAILSTAT": "Y", "AMTRAK": null, "MAP_STA": "Y", "LINE_BRNCH": "GREENBUSH LINE", "STATE": "MA" }, "geometry": { "type": "Point", "coordinates": [ -70.837127926095064, 42.244184731644573 ] } },
{ "type": "Feature", "properties": { "OBJECTID": 241, "STATION": "WEST HINGHAM", "C_RAILSTAT": "Y", "AMTRAK": null, "MAP_STA": "Y", "LINE_BRNCH": "GREENBUSH LINE", "STATE": "MA" }, "geometry": { "type": "Point", "coordinates": [ -70.902642644474497, 42.236135906511365 ] } },
{ "type": "Feature", "properties": { "OBJECTID": 242, "STATION": "WICKFORD JUNCTION", "C_RAILSTAT": "Y", "AMTRAK": null, "MAP_STA": "Y", "LINE_BRNCH": "PROVIDENCE/STOUGHTON LINE", "STATE": "RI" }, "geometry": { "type": "Point", "coordinates": [ -71.491586544227644, 41.580340660849302 ] } },
{ "type": "Feature", "properties": { "OBJECTID": 243, "STATION": "TF GREEN AIRPORT", "C_RAILSTAT": "Y", "AMTRAK": null, "MAP_STA": "Y", "LINE_BRNCH": "PROVIDENCE/STOUGHTON LINE", "STATE": "RI" }, "geometry": { "type": "Point", "coordinates": [ -71.442459287666225, 41.726405104510938 ] } },
{ "type": "Feature", "properties": { "OBJECTID": 246, "STATION": "WAREHAM (S)", "C_RAILSTAT": "S", "AMTRAK": null, "MAP_STA": "Y", "LINE_BRNCH": "CAPE COD MAIN LINE", "STATE": "MA" }, "geometry": { "type": "Point", "coordinates": [ -70.713297376992486, 41.757521602701246 ] } },
{ "type": "Feature", "properties": { "OBJECTID": 251, "STATION": "FITCHBURG", "C_RAILSTAT": "Y", "AMTRAK": null, "MAP_STA": "Y", "LINE_BRNCH": "FITCHBURG LINE", "STATE": "MA" }, "geometry": { "type": "Point", "coordinates": [ -71.793612794304138, 42.581082200203745 ] } },
{ "type": "Feature", "properties": { "OBJECTID": 254, "STATION": "TALBOT AVENUE", "C_RAILSTAT": "Y", "AMTRAK": null, "MAP_STA": "Y", "LINE_BRNCH": "FAIRMOUNT LINE", "STATE": "MA" }, "geometry": { "type": "Point", "coordinates": [ -71.078251719390252, 42.292471918884964 ] } },
{ "type": "Feature", "properties": { "OBJECTID": 255, "STATION": "UPHAMS CORNER", "C_RAILSTAT": "Y", "AMTRAK": null, "MAP_STA": "Y", "LINE_BRNCH": "FAIRMOUNT LINE", "STATE": "MA" }, "geometry": { "type": "Point", "coordinates": [ -71.06864140254936, 42.31909636651875 ] } },
{ "type": "Feature", "properties": { "OBJECTID": 256, "STATION": "READVILLE", "C_RAILSTAT": "Y", "AMTRAK": null, "MAP_STA": "Y", "LINE_BRNCH": "FAIRMOUNT LINE", "STATE": "MA" }, "geometry": { "type": "Point", "coordinates": [ -71.133238683816245, 42.237892268898179 ] } },
{ "type": "Feature", "properties": { "OBJECTID": 257, "STATION": "BLUE HILL AVENUE", "C_RAILSTAT": "Y", "AMTRAK": null, "MAP_STA": "Y", "LINE_BRNCH": "FAIRMOUNT LINE", "STATE": "MA" }, "geometry": { "type": "Point", "coordinates": [ -71.095815482874031, 42.271444911195417 ] } },
{ "type": "Feature", "properties": { "OBJECTID": 260, "STATION": "DEDHAM CORP. CENTER", "C_RAILSTAT": "Y", "AMTRAK": null, "MAP_STA": "Y", "LINE_BRNCH": "FRANKLIN LINE", "STATE": "MA" }, "geometry": { "type": "Point", "coordinates": [ -71.173463764801454, 42.227464596432817 ] } },
{ "type": "Feature", "properties": { "OBJECTID": 264, "STATION": "ANDOVER", "C_RAILSTAT": "Y", "AMTRAK": null, "MAP_STA": "Y", "LINE_BRNCH": "HAVERHILL LINE", "STATE": "MA" }, "geometry": { "type": "Point", "coordinates": [ -71.144541359133228, 42.658156755430248 ] } },
{ "type": "Feature", "properties": { "OBJECTID": 268, "STATION": "BALLARDVALE", "C_RAILSTAT": "Y", "AMTRAK": null, "MAP_STA": "Y", "LINE_BRNCH": "HAVERHILL LINE", "STATE": "MA" }, "geometry": { "type": "Point", "coordinates": [ -71.159865241425805, 42.626994012574308 ] } },
{ "type": "Feature", "properties": { "OBJECTID": 274, "STATION": "FORGE PARK/495", "C_RAILSTAT": "Y", "AMTRAK": null, "MAP_STA": "Y", "LINE_BRNCH": "FRANKLIN LINE", "STATE": "MA" }, "geometry": { "type": "Point", "coordinates": [ -71.439992049320622, 42.089855082903661 ] } },
{ "type": "Feature", "properties": { "OBJECTID": 276, "STATION": "GLOUCESTER", "C_RAILSTAT": "Y", "AMTRAK": null, "MAP_STA": "Y", "LINE_BRNCH": "ROCKPORT LINE", "STATE": "MA" }, "geometry": { "type": "Point", "coordinates": [ -70.665817331614377, 42.616714925879151 ] } },
{ "type": "Feature", "properties": { "OBJECTID": 277, "STATION": "HAVERHILL", "C_RAILSTAT": "Y", "AMTRAK": "Y", "MAP_STA": "Y", "LINE_BRNCH": "HAVERHILL LINE", "STATE": "MA" }, "geometry": { "type": "Point", "coordinates": [ -71.086470050768028, 42.774569016799816 ] } },
{ "type": "Feature", "properties": { "OBJECTID": 281, "STATION": "LYNN", "C_RAILSTAT": "Y", "AMTRAK": null, "MAP_STA": "Y", "LINE_BRNCH": "NEWBURYPORT/ROCKPORT LINE", "STATE": "MA" }, "geometry": { "type": "Point", "coordinates": [ -70.947329818137661, 42.461984033224091 ] } },
{ "type": "Feature", "properties": { "OBJECTID": 285, "STATION": "WYOMING HILL", "C_RAILSTAT": "Y", "AMTRAK": null, "MAP_STA": "Y", "LINE_BRNCH": "HAVERHILL LINE", "STATE": "MA" }, "geometry": { "type": "Point", "coordinates": [ -71.069313388115091, 42.452035671301545 ] } },
{ "type": "Feature", "properties": { "OBJECTID": 286, "STATION": "NATICK CENTER", "C_RAILSTAT": "Y", "AMTRAK": null, "MAP_STA": "Y", "LINE_BRNCH": "FRAMINGHAM/WORCESTER LINE", "STATE": "MA" }, "geometry": { "type": "Point", "coordinates": [ -71.347976385211823, 42.285644525522386 ] } },
{ "type": "Feature", "properties": { "OBJECTID": 289, "STATION": "WEYMOUTH LANDING/EAST BRAINTREE", "C_RAILSTAT": "Y", "AMTRAK": null, "MAP_STA": "Y", "LINE_BRNCH": "GREENBUSH LINE", "STATE": "MA" }, "geometry": { "type": "Point", "coordinates": [ -70.966965263840535, 42.221874558706375 ] } },
{ "type": "Feature", "properties": { "OBJECTID": 290, "STATION": "NORTH WILMINGTON", "C_RAILSTAT": "Y", "AMTRAK": null, "MAP_STA": "Y", "LINE_BRNCH": "HAVERHILL LINE", "STATE": "MA" }, "geometry": { "type": "Point", "coordinates": [ -71.159157338869989, 42.568965356148311 ] } },
{ "type": "Feature", "properties": { "OBJECTID": 291, "STATION": "WEDGEMERE", "C_RAILSTAT": "Y", "AMTRAK": null, "MAP_STA": "Y", "LINE_BRNCH": "LOWELL LINE", "STATE": "MA" }, "geometry": { "type": "Point", "coordinates": [ -71.140101553148398, 42.444912174807683 ] } },
{ "type": "Feature", "properties": { "OBJECTID": 292, "STATION": "ANDERSON/WOBURN", "C_RAILSTAT": "Y", "AMTRAK": "Y", "MAP_STA": "Y", "LINE_BRNCH": "LOWELL LINE", "STATE": "MA" }, "geometry": { "type": "Point", "coordinates": [ -71.143694211695717, 42.515764244319733 ] } },
{ "type": "Feature", "properties": { "OBJECTID": 293, "STATION": "LOWELL", "C_RAILSTAT": "Y", "AMTRAK": null, "MAP_STA": "Y", "LINE_BRNCH": "LOWELL LINE", "STATE": "MA" }, "geometry": { "type": "Point", "coordinates": [ -71.315034822892514, 42.636467873578425 ] } },
{ "type": "Feature", "properties": { "OBJECTID": 294, "STATION": "CANTON CENTER", "C_RAILSTAT": "Y", "AMTRAK": null, "MAP_STA": "Y", "LINE_BRNCH": "PROVIDENCE/STOUGHTON LINE", "STATE": "MA" }, "geometry": { "type": "Point", "coordinates": [ -71.145569500732861, 42.156762174405941 ] } },
{ "type": "Feature", "properties": { "OBJECTID": 298, "STATION": "SOUTH ATTLEBORO", "C_RAILSTAT": "Y", "AMTRAK": null, "MAP_STA": "Y", "LINE_BRNCH": "PROVIDENCE/STOUGHTON LINE", "STATE": "MA" }, "geometry": { "type": "Point", "coordinates": [ -71.354944770515175, 41.897804329967478 ] } },
{ "type": "Feature", "properties": { "OBJECTID": 299, "STATION": "MANSFIELD", "C_RAILSTAT": "Y", "AMTRAK": null, "MAP_STA": "Y", "LINE_BRNCH": "PROVIDENCE/STOUGHTON LINE", "STATE": "MA" }, "geometry": { "type": "Point", "coordinates": [ -71.21992684783072, 42.032792429534844 ] } },
{ "type": "Feature", "properties": { "OBJECTID": 300, "STATION": "CANTON JUNCTION", "C_RAILSTAT": "Y", "AMTRAK": null, "MAP_STA": "Y", "LINE_BRNCH": "PROVIDENCE/STOUGHTON LINE", "STATE": "MA" }, "geometry": { "type": "Point", "coordinates": [ -71.153900417931936, 42.163657617723992 ] } },
{ "type": "Feature", "properties": { "OBJECTID": 303, "STATION": "NORTH BEVERLY", "C_RAILSTAT": "Y", "AMTRAK": null, "MAP_STA": "Y", "LINE_BRNCH": "NEWBURYPORT LINE", "STATE": "MA" }, "geometry": { "type": "Point", "coordinates": [ -70.88388069747873, 42.582934664537042 ] } },
{ "type": "Feature", "properties": { "OBJECTID": 304, "STATION": "READVILLE", "C_RAILSTAT": "Y", "AMTRAK": null, "MAP_STA": "Y", "LINE_BRNCH": "FRANKLIN LINE", "STATE": "MA" }, "geometry": { "type": "Point", "coordinates": [ -71.13397999805521, 42.238173355579953 ] } },
{ "type": "Feature", "properties": { "OBJECTID": 319, "STATION": "WALTHAM", "C_RAILSTAT": "Y", "AMTRAK": null, "MAP_STA": "Y", "LINE_BRNCH": "FITCHBURG LINE", "STATE": "MA" }, "geometry": { "type": "Point", "coordinates": [ -71.236524633338547, 42.374118014026493 ] } },
{ "type": "Feature", "properties": { "OBJECTID": 320, "STATION": "CONCORD", "C_RAILSTAT": "Y", "AMTRAK": null, "MAP_STA": "Y", "LINE_BRNCH": "FITCHBURG LINE", "STATE": "MA" }, "geometry": { "type": "Point", "coordinates": [ -71.358768526491346, 42.45708173563478 ] } },
{ "type": "Feature", "properties": { "OBJECTID": 321, "STATION": "LINCOLN", "C_RAILSTAT": "Y", "AMTRAK": null, "MAP_STA": "Y", "LINE_BRNCH": "FITCHBURG LINE", "STATE": "MA" }, "geometry": { "type": "Point", "coordinates": [ -71.325858154630183, 42.414047938478582 ] } },
{ "type": "Feature", "properties": { "OBJECTID": 322, "STATION": "WAVERLEY", "C_RAILSTAT": "Y", "AMTRAK": null, "MAP_STA": "Y", "LINE_BRNCH": "FITCHBURG LINE", "STATE": "MA" }, "geometry": { "type": "Point", "coordinates": [ -71.190596918152821, 42.387644022936328 ] } },
{ "type": "Feature", "properties": { "OBJECTID": 323, "STATION": "PORTER SQUARE", "C_RAILSTAT": "Y", "AMTRAK": null, "MAP_STA": "Y", "LINE_BRNCH": "FITCHBURG LINE", "STATE": "MA" }, "geometry": { "type": "Point", "coordinates": [ -71.119407866837449, 42.388406249650217 ] } },
{ "type": "Feature", "properties": { "OBJECTID": 324, "STATION": "LITTLETON/ROUTE 495", "C_RAILSTAT": "Y", "AMTRAK": null, "MAP_STA": "Y", "LINE_BRNCH": "FITCHBURG LINE", "STATE": "MA" }, "geometry": { "type": "Point", "coordinates": [ -71.502488474883236, 42.519303563352338 ] } },
{ "type": "Feature", "properties": { "OBJECTID": 325, "STATION": "SOUTH ACTON", "C_RAILSTAT": "Y", "AMTRAK": null, "MAP_STA": "Y", "LINE_BRNCH": "FITCHBURG LINE", "STATE": "MA" }, "geometry": { "type": "Point", "coordinates": [ -71.457905150782281, 42.4603638506129 ] } },
{ "type": "Feature", "properties": { "OBJECTID": 326, "STATION": "WEST CONCORD", "C_RAILSTAT": "Y", "AMTRAK": null, "MAP_STA": "Y", "LINE_BRNCH": "FITCHBURG LINE", "STATE": "MA" }, "geometry": { "type": "Point", "coordinates": [ -71.392724731255868, 42.457082352793734 ] } },
{ "type": "Feature", "properties": { "OBJECTID": 327, "STATION": "KENDAL GREEN", "C_RAILSTAT": "Y", "AMTRAK": null, "MAP_STA": "Y", "LINE_BRNCH": "FITCHBURG LINE", "STATE": "MA" }, "geometry": { "type": "Point", "coordinates": [ -71.283216021976955, 42.379786510643008 ] } },
{ "type": "Feature", "properties": { "OBJECTID": 328, "STATION": "BRANDEIS/ROBERTS", "C_RAILSTAT": "Y", "AMTRAK": null, "MAP_STA": "Y", "LINE_BRNCH": "FITCHBURG LINE", "STATE": "MA" }, "geometry": { "type": "Point", "coordinates": [ -71.260107350944551, 42.361933111775677 ] } },
{ "type": "Feature", "properties": { "OBJECTID": 329, "STATION": "BELMONT", "C_RAILSTAT": "Y", "AMTRAK": null, "MAP_STA": "Y", "LINE_BRNCH": "FITCHBURG LINE", "STATE": "MA" }, "geometry": { "type": "Point", "coordinates": [ -71.175823631791545, 42.396026015532954 ] } },
{ "type": "Feature", "properties": { "OBJECTID": 330, "STATION": "NORTH LEOMINSTER", "C_RAILSTAT": "Y", "AMTRAK": null, "MAP_STA": "Y", "LINE_BRNCH": "FITCHBURG LINE", "STATE": "MA" }, "geometry": { "type": "Point", "coordinates": [ -71.739857755301415, 42.540074237700026 ] } },
{ "type": "Feature", "properties": { "OBJECTID": 332, "STATION": "AYER", "C_RAILSTAT": "Y", "AMTRAK": null, "MAP_STA": "Y", "LINE_BRNCH": "FITCHBURG LINE", "STATE": "MA" }, "geometry": { "type": "Point", "coordinates": [ -71.588650001191226, 42.559074081030829 ] } },
{ "type": "Feature", "properties": { "OBJECTID": 338, "STATION": "NORWOOD DEPOT", "C_RAILSTAT": "Y", "AMTRAK": null, "MAP_STA": "Y", "LINE_BRNCH": "FRANKLIN LINE", "STATE": "MA" }, "geometry": { "type": "Point", "coordinates": [ -71.196926130572692, 42.196318551770972 ] } },
{ "type": "Feature", "properties": { "OBJECTID": 340, "STATION": "MALDEN CENTER", "C_RAILSTAT": "Y", "AMTRAK": null, "MAP_STA": "Y", "LINE_BRNCH": "HAVERHILL LINE", "STATE": "MA" }, "geometry": { "type": "Point", "coordinates": [ -71.074260574281467, 42.426594911596432 ] } },
{ "type": "Feature", "properties": { "OBJECTID": 342, "STATION": "WORCESTER", "C_RAILSTAT": "Y", "AMTRAK": "Y", "MAP_STA": "Y", "LINE_BRNCH": "FRAMINGHAM/WORCESTER LINE", "STATE": "MA" }, "geometry": { "type": "Point", "coordinates": [ -71.79463753476216, 42.261016940380912 ] } },
{ "type": "Feature", "properties": { "OBJECTID": 343, "STATION": "MONTELLO", "C_RAILSTAT": "Y", "AMTRAK": null, "MAP_STA": "Y", "LINE_BRNCH": "MIDDLEBOROUGH/LAKEVILLE LINE", "STATE": "MA" }, "geometry": { "type": "Point", "coordinates": [ -71.021823567625773, 42.10637937203785 ] } },
{ "type": "Feature", "properties": { "OBJECTID": 344, "STATION": "CAMPELLO", "C_RAILSTAT": "Y", "AMTRAK": null, "MAP_STA": "Y", "LINE_BRNCH": "MIDDLEBOROUGH/LAKEVILLE LINE", "STATE": "MA" }, "geometry": { "type": "Point", "coordinates": [ -71.01105555605325, 42.061079445085163 ] } },
{ "type": "Feature", "properties": { "OBJECTID": 346, "STATION": "MIDDLEBOROUGH/LAKEVILLE", "C_RAILSTAT": "Y", "AMTRAK": null, "MAP_STA": "Y", "LINE_BRNCH": "MIDDLEBOROUGH/LAKEVILLE LINE", "STATE": "MA" }, "geometry": { "type": "Point", "coordinates": [ -70.9173699851507, 41.877484704710866 ] } },
{ "type": "Feature", "properties": { "OBJECTID": 347, "STATION": "BROCKTON", "C_RAILSTAT": "Y", "AMTRAK": null, "MAP_STA": "Y", "LINE_BRNCH": "MIDDLEBOROUGH/LAKEVILLE LINE", "STATE": "MA" }, "geometry": { "type": "Point", "coordinates": [ -71.016535494287965, 42.084437612837355 ] } },
{ "type": "Feature", "properties": { "OBJECTID": 348, "STATION": "HOLBROOK/RANDOLPH", "C_RAILSTAT": "Y", "AMTRAK": null, "MAP_STA": "Y", "LINE_BRNCH": "MIDDLEBOROUGH/LAKEVILLE LINE", "STATE": "MA" }, "geometry": { "type": "Point", "coordinates": [ -71.027708043496546, 42.155433478708716 ] } },
{ "type": "Feature", "properties": { "OBJECTID": 349, "STATION": "JFK/UMASS", "C_RAILSTAT": "Y", "AMTRAK": null, "MAP_STA": "Y", "LINE_BRNCH": "MIDDLEBOROUGH MAIN", "STATE": "MA" }, "geometry": { "type": "Point", "coordinates": [ -71.052161631933416, 42.320734554330301 ] } },
{ "type": "Feature", "properties": { "OBJECTID": 350, "STATION": "NEEDHAM JUNCTION", "C_RAILSTAT": "Y", "AMTRAK": null, "MAP_STA": "Y", "LINE_BRNCH": "NEEDHAM LINE", "STATE": "MA" }, "geometry": { "type": "Point", "coordinates": [ -71.236572007282703, 42.273013895591596 ] } },
{ "type": "Feature", "properties": { "OBJECTID": 351, "STATION": "NEEDHAM CENTER", "C_RAILSTAT": "Y", "AMTRAK": null, "MAP_STA": "Y", "LINE_BRNCH": "NEEDHAM LINE", "STATE": "MA" }, "geometry": { "type": "Point", "coordinates": [ -71.237855465880884, 42.280243978425112 ] } },
{ "type": "Feature", "properties": { "OBJECTID": 352, "STATION": "HERSEY", "C_RAILSTAT": "Y", "AMTRAK": null, "MAP_STA": "Y", "LINE_BRNCH": "NEEDHAM LINE", "STATE": "MA" }, "geometry": { "type": "Point", "coordinates": [ -71.21460239080794, 42.27578215472743 ] } },
{ "type": "Feature", "properties": { "OBJECTID": 353, "STATION": "WEST ROXBURY", "C_RAILSTAT": "Y", "AMTRAK": null, "MAP_STA": "Y", "LINE_BRNCH": "NEEDHAM LINE", "STATE": "MA" }, "geometry": { "type": "Point", "coordinates": [ -71.159814924131084, 42.281530483079294 ] } },
{ "type": "Feature", "properties": { "OBJECTID": 354, "STATION": "HIGHLAND", "C_RAILSTAT": "Y", "AMTRAK": null, "MAP_STA": "Y", "LINE_BRNCH": "NEEDHAM LINE", "STATE": "MA" }, "geometry": { "type": "Point", "coordinates": [ -71.154227555976519, 42.284810587414349 ] } },
{ "type": "Feature", "properties": { "OBJECTID": 355, "STATION": "BELLEVUE", "C_RAILSTAT": "Y", "AMTRAK": null, "MAP_STA": "Y", "LINE_BRNCH": "NEEDHAM LINE", "STATE": "MA" }, "geometry": { "type": "Point", "coordinates": [ -71.145474204869174, 42.286592946649193 ] } },
{ "type": "Feature", "properties": { "OBJECTID": 356, "STATION": "ROSLINDALE VILLAGE", "C_RAILSTAT": "Y", "AMTRAK": null, "MAP_STA": "Y", "LINE_BRNCH": "NEEDHAM LINE", "STATE": "MA" }, "geometry": { "type": "Point", "coordinates": [ -71.131660532236751, 42.287066594559846 ] } },
{ "type": "Feature", "properties": { "OBJECTID": 359, "STATION": "ROUTE 128", "C_RAILSTAT": "Y", "AMTRAK": "Y", "MAP_STA": "Y", "LINE_BRNCH": "PROVIDENCE/STOUGHTON LINE", "STATE": "MA" }, "geometry": { "type": "Point", "coordinates": [ -71.147177426238883, 42.210305067138577 ] } },
{ "type": "Feature", "properties": { "OBJECTID": 365, "STATION": "BACK BAY", "C_RAILSTAT": "Y", "AMTRAK": "Y", "MAP_STA": "Y", "LINE_BRNCH": "FRAMINGHAM/WORCESTER LINE", "STATE": "MA" }, "geometry": { "type": "Point", "coordinates": [ -71.075104141482853, 42.347678353386137 ] } },
{ "type": "Feature", "properties": { "OBJECTID": 367, "STATION": "QUINCY CENTER", "C_RAILSTAT": "Y", "AMTRAK": null, "MAP_STA": "Y", "LINE_BRNCH": "MIDDLEBOROUGH MAIN", "STATE": "MA" }, "geometry": { "type": "Point", "coordinates": [ -71.00524823572357, 42.25134285138396 ] } },
{ "type": "Feature", "properties": { "OBJECTID": 370, "STATION": "RUGGLES", "C_RAILSTAT": "Y", "AMTRAK": null, "MAP_STA": "Y", "LINE_BRNCH": "PROVIDENCE/STOUGHTON LINE", "STATE": "MA" }, "geometry": { "type": "Point", "coordinates": [ -71.089216537622661, 42.33655099242857 ] } },
{ "type": "Feature", "properties": { "OBJECTID": 373, "STATION": "HYANNIS (S)", "C_RAILSTAT": "S", "AMTRAK": null, "MAP_STA": "Y", "LINE_BRNCH": "CAPE COD MAIN LINE", "STATE": "MA" }, "geometry": { "type": "Point", "coordinates": [ -70.280162955280659, 41.654907098277079 ] } },
{ "type": "Feature", "properties": { "OBJECTID": 380, "STATION": "OAK GROVE", "C_RAILSTAT": "Y", "AMTRAK": null, "MAP_STA": "Y", "LINE_BRNCH": "HAVERHILL LINE", "STATE": "MA" }, "geometry": { "type": "Point", "coordinates": [ -71.070756887141314, 42.437513076213449 ] } },
{ "type": "Feature", "properties": { "OBJECTID": 381, "STATION": "PAWTUCKET/CENTRAL FALLS", "C_RAILSTAT": "Y", "AMTRAK": null, "MAP_STA": "Y", "LINE_BRNCH": "PROVIDENCE/STOUGHTON LINE", "STATE": "RI" }, "geometry": { "type": "Point", "coordinates": [ -71.392306821515589, 41.878600206106206 ] } }
]
}
